[{"OBJECT_NAME":"YAOGAN-24","OBJECT_ID":"2014-072A","EPOCH":"2026-03-09T23:33:58.619808","MEAN_MOTION":14.76230497,"ECCENTRICITY":0.00123495,"INCLINATION":98.131,"RA_OF_ASC_NODE":205.5775,"ARG_OF_PERICENTER":217.5868,"MEAN_ANOMALY":142.4479,"EPHEMERIS_TYPE":0,"CLASSIFICATION_TYPE":"U","NORAD_CAT_ID":40310,"ELEMENT_SET_NO":999,"REV_AT_EPOCH":60908,"BSTAR":0.00015342398,"MEAN_MOTION_DOT":1.01e-5,"MEAN_MOTION_DDOT":0},{"OBJECT_NAME":"THOR ABLESTAR DEB","OBJECT_ID":"1961-015EB","EPOCH":"2026-03-09T15:10:02.003232","MEAN_MOTION":14.71637139,"ECCENTRICITY":0.0025516,"INCLINATION":66.651,"RA_OF_ASC_NODE":150.8559,"ARG_OF_PERICENTER":10.8137,"MEAN_ANOMALY":349.3525,"EPHEMERIS_TYPE":0,"CLASSIFICATION_TYPE":"U","NORAD_CAT_ID":402,"ELEMENT_SET_NO":999,"REV_AT_EPOCH":32656,"BSTAR":0.0015478,"MEAN_MOTION_DOT":9.61e-5,"MEAN_MOTION_DDOT":0}]
